[{"OBJECT_NAME":"STARLINK-5358","OBJECT_ID":"2023-090AU","EPOCH":"2026-03-09T22:00:01.999584","MEAN_MOTION":15.08668791,"ECCENTRICITY":0.00016126,"INCLINATION":43.0007,"RA_OF_ASC_NODE":260.3086,"ARG_OF_PERICENTER":272.471,"MEAN_ANOMALY":265.5571,"EPHEMERIS_TYPE":0,"CLASSIFICATION_TYPE":"U","NORAD_CAT_ID":57143,"ELEMENT_SET_NO":999,"REV_AT_EPOCH":577,"BSTAR":0.040938166,"MEAN_MOTION_DOT":0.00700841,"MEAN_MOTION_DDOT":0},{"OBJECT_NAME":"OBJECT BS","OBJECT_ID":"2018-099BS","EPOCH":"2026-03-09T16:09:03.028608","MEAN_MOTION":15.13564051,"ECCENTRICITY":0.00072889,"INCLINATION":97.4457,"RA_OF_ASC_NODE":121.015,"ARG_OF_PERICENTER":347.6869,"MEAN_ANOMALY":12.4183,"EPHEMERIS_TYPE":0,"CLASSIFICATION_TYPE":"U","NORAD_CAT_ID":43822,"ELEMENT_SET_NO":999,"REV_AT_EPOCH":39116,"BSTAR":0.00035877018,"MEAN_MOTION_DOT":6.374e-5,"MEAN_MOTION_DDOT":0}]
